[
    {
        "Altitude(m)": 607911.0256616786,
        "Argument of Periapsis(deg)": 0.0,
        "Eccentricity": 0.0,
        "Inclination(deg)": 60.0,
        "Latitude(deg)": -14.293037956379404,
        "Longitude(deg)": -76.55734471539658,
        "Mean Anomaly(deg)": -163.63640000000004,
        "RAAN(deg)": 195.00000000000003,
        "Satellite Name": "Test1 870",
        "Satellite Number": 870,
        "Semi-Major Axis(m)": 6980739.136638005,
        "Time(s)": 0
    },
    {
        "Altitude(m)": 608060.2597927927,
        "Argument of Periapsis(deg)": 0.00010418945913296404,
        "Eccentricity": 0.0,
        "Inclination(deg)": 60.0,
        "Latitude(deg)": -14.826699196616746,
        "Longitude(deg)": -76.26873484884632,
        "Mean Anomaly(deg)": -163.0162938545382,
        "RAAN(deg)": 194.99957995086024,
        "Satellite Name": "Test1 870",
        "Satellite Number": 870,
        "Semi-Major Axis(m)": 6980739.136638005,
        "Time(s)": 10
    }
]